CREW DRAGON 12          
1 67796U 26031A   26066.51273615  .00014539  00000+0  27602-3 0  9998
2 67796  51.6318  83.1189 0008132 167.0679 193.0520 15.48507964555881
